[{"OBJECT_NAME":"STARLINK-34798","OBJECT_ID":"2025-165H","EPOCH":"2026-03-09T18:05:23.973216","MEAN_MOTION":15.05644548,"ECCENTRICITY":0.00011549,"INCLINATION":97.6023,"RA_OF_ASC_NODE":147.3485,"ARG_OF_PERICENTER":92.2896,"MEAN_ANOMALY":267.8463,"EPHEMERIS_TYPE":0,"CLASSIFICATION_TYPE":"U","NORAD_CAT_ID":65063,"ELEMENT_SET_NO":999,"REV_AT_EPOCH":3480,"BSTAR":0.00048937741,"MEAN_MOTION_DOT":7.006e-5,"MEAN_MOTION_DDOT":0},{"OBJECT_NAME":"UNKNOWN","OBJECT_ID":"","EPOCH":"2026-03-08T12:59:39.172704","MEAN_MOTION":15.0131728,"ECCENTRICITY":0.00204305,"INCLINATION":86.3534,"RA_OF_ASC_NODE":358.469,"ARG_OF_PERICENTER":121.5673,"MEAN_ANOMALY":238.7558,"EPHEMERIS_TYPE":0,"CLASSIFICATION_TYPE":"U","NORAD_CAT_ID":270086,"ELEMENT_SET_NO":999,"REV_AT_EPOCH":9441,"BSTAR":0.0053525659,"MEAN_MOTION_DOT":0.00069778,"MEAN_MOTION_DDOT":0}]
